[{"OBJECT_NAME":"SITRO-AIS 28","OBJECT_ID":"2024-039U","EPOCH":"2026-03-09T22:53:08.846304","MEAN_MOTION":14.92876764,"ECCENTRICITY":0.01445021,"INCLINATION":95.3938,"RA_OF_ASC_NODE":167.1162,"ARG_OF_PERICENTER":314.581,"MEAN_ANOMALY":44.3693,"EPHEMERIS_TYPE":0,"CLASSIFICATION_TYPE":"U","NORAD_CAT_ID":59071,"ELEMENT_SET_NO":999,"REV_AT_EPOCH":10993,"BSTAR":0.0004111707,"MEAN_MOTION_DOT":5.19e-5,"MEAN_MOTION_DDOT":0},{"OBJECT_NAME":"COSMOS 2251 DEB","OBJECT_ID":"1993-036HA","EPOCH":"2026-03-09T21:10:53.462208","MEAN_MOTION":14.60940832,"ECCENTRICITY":0.00182347,"INCLINATION":74.0264,"RA_OF_ASC_NODE":352.8518,"ARG_OF_PERICENTER":68.2028,"MEAN_ANOMALY":354.5966,"EPHEMERIS_TYPE":0,"CLASSIFICATION_TYPE":"U","NORAD_CAT_ID":34015,"ELEMENT_SET_NO":999,"REV_AT_EPOCH":89803,"BSTAR":0.0012628798,"MEAN_MOTION_DOT":6.177e-5,"MEAN_MOTION_DDOT":0}]
